[{"OBJECT_NAME":"STARLINK-34793","OBJECT_ID":"2025-165J","EPOCH":"2026-03-09T23:04:27.651360","MEAN_MOTION":15.05646458,"ECCENTRICITY":7.12e-5,"INCLINATION":97.6031,"RA_OF_ASC_NODE":147.5308,"ARG_OF_PERICENTER":102.7137,"MEAN_ANOMALY":257.417,"EPHEMERIS_TYPE":0,"CLASSIFICATION_TYPE":"U","NORAD_CAT_ID":65064,"ELEMENT_SET_NO":999,"REV_AT_EPOCH":3483,"BSTAR":0.00057183585,"MEAN_MOTION_DOT":8.199e-5,"MEAN_MOTION_DDOT":0},{"OBJECT_NAME":"KUIPER-00163","OBJECT_ID":"2025-217R","EPOCH":"2026-03-09T22:00:01.999584","MEAN_MOTION":15.04465035,"ECCENTRICITY":0.00014571,"INCLINATION":51.8986,"RA_OF_ASC_NODE":45.7407,"ARG_OF_PERICENTER":44.6622,"MEAN_ANOMALY":115.8121,"EPHEMERIS_TYPE":0,"CLASSIFICATION_TYPE":"U","NORAD_CAT_ID":65777,"ELEMENT_SET_NO":999,"REV_AT_EPOCH":421,"BSTAR":0.0036879853,"MEAN_MOTION_DOT":0.00052296,"MEAN_MOTION_DDOT":0}]
